{
  "type": "FeatureCollection",
  "features": [
    {
      "type": "Feature",
      "properties": {
        "norad_id": 35711,
        "name": "COSMOS 2251 DEB",
        "group": "cosmos-2251-debris",
        "lat": -5.959903524290693,
        "lon": 32.264895044056736,
        "alt_km": 717.870849405178,
        "timestamp": "2025-12-17T21:39:46.085925+00:00",
        "meta_object_name": "COSMOS 2251 DEB",
        "meta_object_id": "1993-036AQG",
        "meta_epoch": "2025-12-16T08:43:24.573504",
        "meta_mean_motion": 14.63811457,
        "meta_eccentricity": 0.00855113,
        "meta_inclination": 74.0451,
        "meta_ra_of_asc_node": 213.5058,
        "meta_arg_of_pericenter": 313.6514,
        "meta_mean_anomaly": 45.7584,
        "meta_ephemeris_type": 0,
        "meta_classification_type": "U",
        "meta_norad_cat_id": 35711,
        "meta_element_set_no": 999,
        "meta_rev_at_epoch": 87824,
        "meta_bstar": 0.00016330045,
        "meta_mean_motion_dot": 8.64e-06,
        "meta_mean_motion_ddot": 0,
        "tle_line1": "1 35711U 93036AQG 25350.36347886  .00000864  00000+0  16330-3 0  9991",
        "tle_line2": "2 35711  74.0451 213.5058 0085511 313.6514  45.7584 14.63811457878249"
      },
      "geometry": {
        "type": "Point",
        "coordinates": [
          32.264895044056736,
          -5.959903524290693
        ]
      }
    },
    {
      "type": "Feature",
      "properties": {
        "norad_id": 35716,
        "name": "COSMOS 2251 DEB",
        "group": "cosmos-2251-debris",
        "lat": -16.937279032498605,
        "lon": 9.339918185802837,
        "alt_km": 759.9054524355033,
        "timestamp": "2025-12-17T21:39:46.085934+00:00",
        "meta_object_name": "COSMOS 2251 DEB",
        "meta_object_id": "1993-036AQM",
        "meta_epoch": "2025-12-16T22:02:27.255264",
        "meta_mean_motion": 14.60091265,
        "meta_eccentricity": 0.00889114,
        "meta_inclination": 73.992,
        "meta_ra_of_asc_node": 186.2072,
        "meta_arg_of_pericenter": 26.0951,
        "meta_mean_anomaly": 39.9194,
        "meta_ephemeris_type": 0,
        "meta_classification_type": "U",
        "meta_norad_cat_id": 35716,
        "meta_element_set_no": 999,
        "meta_rev_at_epoch": 87688,
        "meta_bstar": 8.2846123e-05,
        "meta_mean_motion_dot": 3.88e-06,
        "meta_mean_motion_ddot": 0,
        "tle_line1": "1 35716U 93036AQM 25350.91837101  .00000388  00000+0  82846-4 0  9998",
        "tle_line2": "2 35716  73.9920 186.2072 0088911  26.0951  39.9194 14.60091265876886"
      },
      "geometry": {
        "type": "Point",
        "coordinates": [
          9.339918185802837,
          -16.937279032498605
        ]
      }
    },
    {
      "type": "Feature",
      "properties": {
        "norad_id": 35717,
        "name": "COSMOS 2251 DEB",
        "group": "cosmos-2251-debris",
        "lat": -68.20816473023666,
        "lon": 162.80610382825867,
        "alt_km": 812.9024342715948,
        "timestamp": "2025-12-17T21:39:46.085943+00:00",
        "meta_object_name": "COSMOS 2251 DEB",
        "meta_object_id": "1993-036AQN",
        "meta_epoch": "2025-12-15T21:36:31.335552",
        "meta_mean_motion": 14.38515087,
        "meta_eccentricity": 0.00772191,
        "meta_inclination": 74.1598,
        "meta_ra_of_asc_node": 211.7132,
        "meta_arg_of_pericenter": 70.2705,
        "meta_mean_anomaly": 290.6758,
        "meta_ephemeris_type": 0,
        "meta_classification_type": "U",
        "meta_norad_cat_id": 35717,
        "meta_element_set_no": 999,
        "meta_rev_at_epoch": 74145,
        "meta_bstar": 0.0007891897,
        "meta_mean_motion_dot": 2.473e-05,
        "meta_mean_motion_ddot": 0,
        "tle_line1": "1 35717U 93036AQN 25349.90036268  .00002473  00000+0  78919-3 0  9993",
        "tle_line2": "2 35717  74.1598 211.7132 0077219  70.2705 290.6758 14.38515087741453"
      },
      "geometry": {
        "type": "Point",
        "coordinates": [
          162.80610382825867,
          -68.20816473023666
        ]
      }
    },
    {
      "type": "Feature",
      "properties": {
        "norad_id": 35718,
        "name": "COSMOS 2251 DEB",
        "group": "cosmos-2251-debris",
        "lat": -47.589843836937504,
        "lon": -41.75190906650405,
        "alt_km": 668.0484184854231,
        "timestamp": "2025-12-17T21:39:46.085952+00:00",
        "meta_object_name": "COSMOS 2251 DEB",
        "meta_object_id": "1993-036AQP",
        "meta_epoch": "2025-12-17T02:38:13.400448",
        "meta_mean_motion": 14.68736376,
        "meta_eccentricity": 0.00104417,
        "meta_inclination": 74.0312,
        "meta_ra_of_asc_node": 121.5128,
        "meta_arg_of_pericenter": 170.1123,
        "meta_mean_anomaly": 190.0255,
        "meta_ephemeris_type": 0,
        "meta_classification_type": "U",
        "meta_norad_cat_id": 35718,
        "meta_element_set_no": 999,
        "meta_rev_at_epoch": 65904,
        "meta_bstar": 0.0013106326,
        "meta_mean_motion_dot": 7.622e-05,
        "meta_mean_motion_ddot": 0,
        "tle_line1": "1 35718U 93036AQP 25351.10987732  .00007622  00000+0  13106-2 0  9997",
        "tle_line2": "2 35718  74.0312 121.5128 0010441 170.1123 190.0255 14.68736376659045"
      },
      "geometry": {
        "type": "Point",
        "coordinates": [
          -41.75190906650405,
          -47.589843836937504
        ]
      }
    },
    {
      "type": "Feature",
      "properties": {
        "norad_id": 35721,
        "name": "COSMOS 2251 DEB",
        "group": "cosmos-2251-debris",
        "lat": -24.662511349078205,
        "lon": 160.64056900976482,
        "alt_km": 684.0858130796187,
        "timestamp": "2025-12-17T21:39:46.085961+00:00",
        "meta_object_name": "COSMOS 2251 DEB",
        "meta_object_id": "1993-036AQS",
        "meta_epoch": "2025-12-09T19:36:39.465216",
        "meta_mean_motion": 14.34317214,
        "meta_eccentricity": 0.01465875,
        "meta_inclination": 73.9489,
        "meta_ra_of_asc_node": 183.1196,
        "meta_arg_of_pericenter": 330.1589,
        "meta_mean_anomaly": 29.126,
        "meta_ephemeris_type": 0,
        "meta_classification_type": "U",
        "meta_norad_cat_id": 35721,
        "meta_element_set_no": 999,
        "meta_rev_at_epoch": 57747,
        "meta_bstar": 0.0018396061,
        "meta_mean_motion_dot": 5.808e-05,
        "meta_mean_motion_ddot": 0,
        "tle_line1": "1 35721U 93036AQS 25343.81712344  .00005808  00000+0  18396-2 0  9995",
        "tle_line2": "2 35721  73.9489 183.1196 0146587 330.1589  29.1260 14.34317214577479"
      },
      "geometry": {
        "type": "Point",
        "coordinates": [
          160.64056900976482,
          -24.662511349078205
        ]
      }
    },
    {
      "type": "Feature",
      "properties": {
        "norad_id": 35724,
        "name": "COSMOS 2251 DEB",
        "group": "cosmos-2251-debris",
        "lat": -2.5572992836213215,
        "lon": -67.8780868177775,
        "alt_km": 699.9493240901284,
        "timestamp": "2025-12-17T21:39:46.085970+00:00",
        "meta_object_name": "COSMOS 2251 DEB",
        "meta_object_id": "1993-036AQV",
        "meta_epoch": "2025-12-16T06:09:29.643840",
        "meta_mean_motion": 14.58206767,
        "meta_eccentricity": 0.00589475,
        "meta_inclination": 74.0324,
        "meta_ra_of_asc_node": 295.9861,
        "meta_arg_of_pericenter": 88.6274,
        "meta_mean_anomaly": 272.1643,
        "meta_ephemeris_type": 0,
        "meta_classification_type": "U",
        "meta_norad_cat_id": 35724,
        "meta_element_set_no": 999,
        "meta_rev_at_epoch": 87580,
        "meta_bstar": 0.00025759963,
        "meta_mean_motion_dot": 1.187e-05,
        "meta_mean_motion_ddot": 0,
        "tle_line1": "1 35724U 93036AQV 25350.25659310  .00001187  00000+0  25760-3 0  9997",
        "tle_line2": "2 35724  74.0324 295.9861 0058947  88.6274 272.1643 14.58206767875800"
      },
      "geometry": {
        "type": "Point",
        "coordinates": [
          -67.8780868177775,
          -2.5572992836213215
        ]
      }
    },
    {
      "type": "Feature",
      "properties": {
        "norad_id": 35759,
        "name": "COSMOS 2251 DEB",
        "group": "cosmos-2251-debris",
        "lat": -19.073377780132603,
        "lon": -159.56175452726188,
        "alt_km": 630.0377646420902,
        "timestamp": "2025-12-17T21:39:46.085979+00:00",
        "meta_object_name": "COSMOS 2251 DEB",
        "meta_object_id": "1993-036ARD",
        "meta_epoch": "2025-12-17T08:38:24.236736",
        "meta_mean_motion": 14.6490617,
        "meta_eccentricity": 0.00772003,
        "meta_inclination": 74.0368,
        "meta_ra_of_asc_node": 207.1613,
        "meta_arg_of_pericenter": 324.2826,
        "meta_mean_anomaly": 35.319,
        "meta_ephemeris_type": 0,
        "meta_classification_type": "U",
        "meta_norad_cat_id": 35759,
        "meta_element_set_no": 999,
        "meta_rev_at_epoch": 66203,
        "meta_bstar": 0.00021011522,
        "meta_mean_motion_dot": 1.14e-05,
        "meta_mean_motion_ddot": 0,
        "tle_line1": "1 35759U 93036ARD 25351.36000274  .00001140  00000+0  21012-3 0  9992",
        "tle_line2": "2 35759  74.0368 207.1613 0077200 324.2826  35.3190 14.64906170662038"
      },
      "geometry": {
        "type": "Point",
        "coordinates": [
          -159.56175452726188,
          -19.073377780132603
        ]
      }
    }
  ]
}